[{"OBJECT_NAME":"STARLINK-31649","OBJECT_ID":"2024-062S","EPOCH":"2026-03-09T21:41:50.558496","MEAN_MOTION":15.30187012,"ECCENTRICITY":0.00013709,"INCLINATION":53.1596,"RA_OF_ASC_NODE":254.7077,"ARG_OF_PERICENTER":102.4002,"MEAN_ANOMALY":257.7152,"EPHEMERIS_TYPE":0,"CLASSIFICATION_TYPE":"U","NORAD_CAT_ID":59390,"ELEMENT_SET_NO":999,"REV_AT_EPOCH":10970,"BSTAR":2.4924742e-5,"MEAN_MOTION_DOT":3.79e-6,"MEAN_MOTION_DDOT":0},{"OBJECT_NAME":"NOAA 17 DEB","OBJECT_ID":"2002-032DK","EPOCH":"2026-03-06T06:53:22.349472","MEAN_MOTION":15.29547844,"ECCENTRICITY":0.00135803,"INCLINATION":98.6735,"RA_OF_ASC_NODE":77.6727,"ARG_OF_PERICENTER":131.2945,"MEAN_ANOMALY":228.9463,"EPHEMERIS_TYPE":0,"CLASSIFICATION_TYPE":"U","NORAD_CAT_ID":49481,"ELEMENT_SET_NO":999,"REV_AT_EPOCH":24998,"BSTAR":0.011623019,"MEAN_MOTION_DOT":0.00349096,"MEAN_MOTION_DDOT":0}]
